[
    {
        "Altitude(m)": 607911.0253084985,
        "Argument of Periapsis(deg)": 0.0,
        "Eccentricity": 0.0,
        "Inclination(deg)": 60.0,
        "Latitude(deg)": -14.29303596507486,
        "Longitude(deg)": -96.55735399236035,
        "Mean Anomaly(deg)": -163.6364,
        "RAAN(deg)": 175.0,
        "Satellite Name": "Test1 782",
        "Satellite Number": 782,
        "Semi-Major Axis(m)": 6980739.136638005,
        "Time(s)": 0
    },
    {
        "Altitude(m)": 608060.259461627,
        "Argument of Periapsis(deg)": 0.00010418945913296404,
        "Eccentricity": 0.0,
        "Inclination(deg)": 60.0,
        "Latitude(deg)": -14.826697390983673,
        "Longitude(deg)": -96.26874449035876,
        "Mean Anomaly(deg)": -163.01629385453816,
        "RAAN(deg)": 174.99957995086024,
        "Satellite Name": "Test1 782",
        "Satellite Number": 782,
        "Semi-Major Axis(m)": 6980739.136638005,
        "Time(s)": 10
    },
    {
        "Altitude(m)": 608211.9238145071,
        "Argument of Periapsis(deg)": 0.0002083789182659281,
        "Eccentricity": 0.0,
        "Inclination(deg)": 60.0,
        "Latitude(deg)": -15.359842595203098,
        "Longitude(deg)": -95.97852618837138,
        "Mean Anomaly(deg)": -162.39618770907634,
        "RAAN(deg)": 174.9991599017205,
        "Satellite Name": "Test1 782",
        "Satellite Number": 782,
        "Semi-Major Axis(m)": 6980739.136638005,
        "Time(s)": 20
    },
    {
        "Altitude(m)": 608365.970285475,
        "Argument of Periapsis(deg)": 0.00031256837739889213,
        "Eccentricity": 0.0,
        "Inclination(deg)": 60.0,
        "Latitude(deg)": -15.892450368556549,
        "Longitude(deg)": -95.68663161877598,
        "Mean Anomaly(deg)": -161.77608156361453,
        "RAAN(deg)": 174.99873985258077,
        "Satellite Name": "Test1 782",
        "Satellite Number": 782,
        "Semi-Major Axis(m)": 6980739.136638005,
        "Time(s)": 30
    },
    {
        "Altitude(m)": 608522.3495953348,
        "Argument of Periapsis(deg)": 0.0004167578365318562,
        "Eccentricity": 0.0,
        "Inclination(deg)": 60.0,
        "Latitude(deg)": -16.42449916960574,
        "Longitude(deg)": -95.39299179493176,
        "Mean Anomaly(deg)": -161.1559754181527,
        "RAAN(deg)": 174.99831980344103,
        "Satellite Name": "Test1 782",
        "Satellite Number": 782,
        "Semi-Major Axis(m)": 6980739.136638005,
        "Time(s)": 40
    },
    {
        "Altitude(m)": 608681.0112886605,
        "Argument of Periapsis(deg)": 0.0005209472956648203,
        "Eccentricity": 0.0,
        "Inclination(deg)": 60.0,
        "Latitude(deg)": -16.95596710862942,
        "Longitude(deg)": -95.09753717585107,
        "Mean Anomaly(deg)": -160.53586927269086,
        "RAAN(deg)": 174.99789975430127,
        "Satellite Name": "Test1 782",
        "Satellite Number": 782,
        "Semi-Major Axis(m)": 6980739.136638005,
        "Time(s)": 50
    },
    {
        "Altitude(m)": 608841.9037556692,
        "Argument of Periapsis(deg)": 0.0006251367547977843,
        "Eccentricity": 0.0,
        "Inclination(deg)": 60.0,
        "Latitude(deg)": -17.48683193112242,
        "Longitude(deg)": -94.80019711715839,
        "Mean Anomaly(deg)": -159.915763127229,
        "RAAN(deg)": 174.99747970516154,
        "Satellite Name": "Test1 782",
        "Satellite Number": 782,
        "Semi-Major Axis(m)": 6980739.136638005,
        "Time(s)": 60
    },
    {
        "Altitude(m)": 609004.9742546462,
        "Argument of Periapsis(deg)": 0.0007293262139307483,
        "Eccentricity": 0.0,
        "Inclination(deg)": 60.0,
        "Latitude(deg)": -18.017071000791134,
        "Longitude(deg)": -94.50089932118718,
        "Mean Anomaly(deg)": -159.29565698176722,
        "RAAN(deg)": 174.9970596560218,
        "Satellite Name": "Test1 782",
        "Satellite Number": 782,
        "Semi-Major Axis(m)": 6980739.136638005,
        "Time(s)": 70
    },
    {
        "Altitude(m)": 609170.1689348838,
        "Argument of Periapsis(deg)": 0.0008335156730637124,
        "Eccentricity": 0.0,
        "Inclination(deg)": 60.0,
        "Latitude(deg)": -18.546661282021052,
        "Longitude(deg)": -94.19957079906456,
        "Mean Anomaly(deg)": -158.6755508363054,
        "RAAN(deg)": 174.99663960688207,
        "Satellite Name": "Test1 782",
        "Satellite Number": 782,
        "Semi-Major Axis(m)": 6980739.136638005,
        "Time(s)": 80
    },
    {
        "Altitude(m)": 609337.4328601933,
        "Argument of Periapsis(deg)": 0.0009377051321966765,
        "Eccentricity": 0.0,
        "Inclination(deg)": 60.0,
        "Latitude(deg)": -19.07557932179275,
        "Longitude(deg)": -93.89613731901468,
        "Mean Anomaly(deg)": -158.05544469084356,
        "RAAN(deg)": 174.9962195577423,
        "Satellite Name": "Test1 782",
        "Satellite Number": 782,
        "Semi-Major Axis(m)": 6980739.136638005,
        "Time(s)": 90
    },
    {
        "Altitude(m)": 609506.7100328944,
        "Argument of Periapsis(deg)": 0.0010418945913296407,
        "Eccentricity": 0.0,
        "Inclination(deg)": 60.0,
        "Latitude(deg)": -19.603801231021436,
        "Longitude(deg)": -93.5905228537327,
        "Mean Anomaly(deg)": -157.4353385453817,
        "RAAN(deg)": 174.9957995086026,
        "Satellite Name": "Test1 782",
        "Satellite Number": 782,
        "Semi-Major Axis(m)": 6980739.136638005,
        "Time(s)": 100
    },
    {
        "Altitude(m)": 609677.9434183326,
        "Argument of Periapsis(deg)": 0.0011460840504626045,
        "Eccentricity": 0.0,
        "Inclination(deg)": 60.0,
        "Latitude(deg)": -20.131302665292438,
        "Longitude(deg)": -93.2826505396869,
        "Mean Anomaly(deg)": -156.81523239991986,
        "RAAN(deg)": 174.99537945946284,
        "Satellite Name": "Test1 782",
        "Satellite Number": 782,
        "Semi-Major Axis(m)": 6980739.136638005,
        "Time(s)": 110
    },
    {
        "Altitude(m)": 609851.0749698572,
        "Argument of Periapsis(deg)": 0.0012502735095955685,
        "Eccentricity": 0.0,
        "Inclination(deg)": 60.0,
        "Latitude(deg)": -20.65805880496799,
        "Longitude(deg)": -92.97244212258146,
        "Mean Anomaly(deg)": -156.19512625445805,
        "RAAN(deg)": 174.9949594103231,
        "Satellite Name": "Test1 782",
        "Satellite Number": 782,
        "Semi-Major Axis(m)": 6980739.136638005,
        "Time(s)": 120
    },
    {
        "Altitude(m)": 610026.0456543324,
        "Argument of Periapsis(deg)": 0.0013544629687285324,
        "Eccentricity": 0.0,
        "Inclination(deg)": 60.0,
        "Latitude(deg)": -21.184044334636425,
        "Longitude(deg)": -92.65981740184141,
        "Mean Anomaly(deg)": -155.57502010899623,
        "RAAN(deg)": 174.99453936118334,
        "Satellite Name": "Test1 782",
        "Satellite Number": 782,
        "Semi-Major Axis(m)": 6980739.136638005,
        "Time(s)": 130
    },
    {
        "Altitude(m)": 610202.7954780475,
        "Argument of Periapsis(deg)": 0.0014586524278614966,
        "Eccentricity": 0.0,
        "Inclination(deg)": 60.0,
        "Latitude(deg)": -21.70923342187571,
        "Longitude(deg)": -92.34469518698002,
        "Mean Anomaly(deg)": -154.95491396353435,
        "RAAN(deg)": 174.99411931204364,
        "Satellite Name": "Test1 782",
        "Satellite Number": 782,
        "Semi-Major Axis(m)": 6980739.136638005,
        "Time(s)": 140
    },
    {
        "Altitude(m)": 610381.2635131122,
        "Argument of Periapsis(deg)": 0.0015628418869944607,
        "Eccentricity": 0.0,
        "Inclination(deg)": 60.0,
        "Latitude(deg)": -22.233599695302185,
        "Longitude(deg)": -92.02699274009284,
        "Mean Anomaly(deg)": -154.33480781807256,
        "RAAN(deg)": 174.99369926290387,
        "Satellite Name": "Test1 782",
        "Satellite Number": 782,
        "Semi-Major Axis(m)": 6980739.136638005,
        "Time(s)": 150
    },
    {
        "Altitude(m)": 610561.3879242912,
        "Argument of Periapsis(deg)": 0.0016670313461274247,
        "Eccentricity": 0.0,
        "Inclination(deg)": 60.0,
        "Latitude(deg)": -22.757116221875307,
        "Longitude(deg)": -91.70662521734445,
        "Mean Anomaly(deg)": -153.71470167261074,
        "RAAN(deg)": 174.99327921376414,
        "Satellite Name": "Test1 782",
        "Satellite Number": 782,
        "Semi-Major Axis(m)": 6980739.136638005,
        "Time(s)": 160
    },
    {
        "Altitude(m)": 610743.1059962481,
        "Argument of Periapsis(deg)": 0.0017712208052603888,
        "Eccentricity": 0.0,
        "Inclination(deg)": 60.0,
        "Latitude(deg)": -23.279755483425756,
        "Longitude(deg)": -91.38350662232182,
        "Mean Anomaly(deg)": -153.09459552714893,
        "RAAN(deg)": 174.99285916462438,
        "Satellite Name": "Test1 782",
        "Satellite Number": 782,
        "Semi-Major Axis(m)": 6980739.136638005,
        "Time(s)": 170
    },
    {
        "Altitude(m)": 610926.3541612102,
        "Argument of Periapsis(deg)": 0.001875410264393353,
        "Eccentricity": 0.0,
        "Inclination(deg)": 60.0,
        "Latitude(deg)": -23.801489352377427,
        "Longitude(deg)": -91.05754924550571,
        "Mean Anomaly(deg)": -152.4744893816871,
        "RAAN(deg)": 174.99243911548467,
        "Satellite Name": "Test1 782",
        "Satellite Number": 782,
        "Semi-Major Axis(m)": 6980739.136638005,
        "Time(s)": 180
    },
    {
        "Altitude(m)": 611111.0680270164,
        "Argument of Periapsis(deg)": 0.0019795997235263173,
        "Eccentricity": 0.0,
        "Inclination(deg)": 60.0,
        "Latitude(deg)": -24.322289066629182,
        "Longitude(deg)": -90.72866310274121,
        "Mean Anomaly(deg)": -151.85438323622523,
        "RAAN(deg)": 174.99201906634488,
        "Satellite Name": "Test1 782",
        "Satellite Number": 782,
        "Semi-Major Axis(m)": 6980739.136638005,
        "Time(s)": 190
    }
]